{
  "norad_id": 60530,
  "name": "TORO",
  "history": [
    {
      "epoch": "2026-03-28T22:10:11.372736Z",
      "apogee_km": 579.6758348435633,
      "perigee_km": 578.1982914540322,
      "latitude_deg": 5.5805478026690645e-05,
      "longitude_deg": 5.210787786580499,
      "height_km": 582.1031958362854,
      "semi_major_axis_km": 6957.074063148798,
      "eccentricity": 0.00010619,
      "inclination_deg": 97.6823,
      "raan_deg": 164.0954,
      "arg_perigee_deg": 99.1819,
      "mean_anomaly_deg": 260.9523,
      "mean_motion_rev_day": 14.96107575
    },
    {
      "epoch": "2026-03-29T04:35:25.651968Z",
      "apogee_km": 579.6619459735093,
      "perigee_km": 578.1953965300081,
      "latitude_deg": -3.741819759839704e-05,
      "longitude_deg": -91.0997824721808,
      "height_km": 582.1003487131564,
      "semi_major_axis_km": 6957.065671251758,
      "eccentricity": 0.0001054,
      "inclination_deg": 97.6822,
      "raan_deg": 164.358,
      "arg_perigee_deg": 99.6877,
      "mean_anomaly_deg": 260.4463,
      "mean_motion_rev_day": 14.96110282
    },
    {
      "epoch": "2026-03-30T04:40:04.075104Z",
      "apogee_km": 579.6335158603088,
      "perigee_km": 578.1947976810898,
      "latitude_deg": 7.867622664576466e-07,
      "longitude_deg": -92.26430456949683,
      "height_km": 582.1186609928501,
      "semi_major_axis_km": 6957.051156770699,
      "eccentricity": 0.0001034,
      "inclination_deg": 97.682,
      "raan_deg": 165.3424,
      "arg_perigee_deg": 102.5376,
      "mean_anomaly_deg": 257.5961,
      "mean_motion_rev_day": 14.96114964
    },
    {
      "epoch": "2026-03-30T11:05:18.263616Z",
      "apogee_km": 579.6352547490869,
      "perigee_km": 578.1835974418173,
      "latitude_deg": 4.26268868122071e-05,
      "longitude_deg": 171.42548632914293,
      "height_km": 582.1274879403109,
      "semi_major_axis_km": 6957.046426095451,
      "eccentricity": 0.00010433,
      "inclination_deg": 97.6821,
      "raan_deg": 165.605,
      "arg_perigee_deg": 103.5233,
      "mean_anomaly_deg": 256.6105,
      "mean_motion_rev_day": 14.9611649
    },
    {
      "epoch": "2026-03-30T19:06:50.951520Z",
      "apogee_km": 579.6118563624277,
      "perigee_km": 578.1947072570229,
      "latitude_deg": 6.664316033862406e-05,
      "longitude_deg": 51.037778191571476,
      "height_km": 582.1290725465773,
      "semi_major_axis_km": 6957.040281809725,
      "eccentricity": 0.00010185,
      "inclination_deg": 97.6819,
      "raan_deg": 165.9331,
      "arg_perigee_deg": 104.4993,
      "mean_anomaly_deg": 255.6342,
      "mean_motion_rev_day": 14.96118472
    },
    {
      "epoch": "2026-03-31T15:58:51.828960Z",
      "apogee_km": 579.6217322664561,
      "perigee_km": 578.1538000407973,
      "latitude_deg": -1.1162713892167916e-05,
      "longitude_deg": 98.03026024020991,
      "height_km": 582.1477220950352,
      "semi_major_axis_km": 6957.024766153626,
      "eccentricity": 0.0001055,
      "inclination_deg": 97.6817,
      "raan_deg": 166.7862,
      "arg_perigee_deg": 106.7542,
      "mean_anomaly_deg": 253.3795,
      "mean_motion_rev_day": 14.96123477
    },
    {
      "epoch": "2026-04-01T11:14:33.960768Z",
      "apogee_km": 579.6408124679065,
      "perigee_km": 578.1227909653726,
      "latitude_deg": 2.9328310184830828e-05,
      "longitude_deg": 169.10115661038228,
      "height_km": 582.1748226546857,
      "semi_major_axis_km": 6957.018801716639,
      "eccentricity": 0.0001091,
      "inclination_deg": 97.6815,
      "raan_deg": 167.5737,
      "arg_perigee_deg": 108.8053,
      "mean_anomaly_deg": 251.3287,
      "mean_motion_rev_day": 14.96125401
    },
    {
      "epoch": "2026-04-02T16:08:06.701856Z",
      "apogee_km": 579.6864352800285,
      "perigee_km": 578.0223229421445,
      "latitude_deg": 5.9567383819222574e-05,
      "longitude_deg": 95.7093626208994,
      "height_km": 582.1831353027669,
      "semi_major_axis_km": 6956.991379111086,
      "eccentricity": 0.0001196,
      "inclination_deg": 97.6812,
      "raan_deg": 168.7549,
      "arg_perigee_deg": 109.7037,
      "mean_anomaly_deg": 250.4314,
      "mean_motion_rev_day": 14.96134247
    },
    {
      "epoch": "2026-04-02T16:08:06.702720Z",
      "apogee_km": 579.6862265702866,
      "perigee_km": 578.0225316518863,
      "latitude_deg": 6.281473671947127e-05,
      "longitude_deg": 95.70935857546205,
      "height_km": 582.18306491679,
      "semi_major_axis_km": 6956.991379111086,
      "eccentricity": 0.00011957,
      "inclination_deg": 97.6812,
      "raan_deg": 168.7549,
      "arg_perigee_deg": 109.7037,
      "mean_anomaly_deg": 250.4314,
      "mean_motion_rev_day": 14.96134247
    },
    {
      "epoch": "2026-04-03T16:12:43.504992Z",
      "apogee_km": 579.7153478963719,
      "perigee_km": 577.9288008060785,
      "latitude_deg": -5.702226730814602e-05,
      "longitude_deg": 94.55152931056949,
      "height_km": 582.1770563334164,
      "semi_major_axis_km": 6956.959074351225,
      "eccentricity": 0.0001284,
      "inclination_deg": 97.6809,
      "raan_deg": 169.7392,
      "arg_perigee_deg": 110.0906,
      "mean_anomaly_deg": 250.0453,
      "mean_motion_rev_day": 14.96144668
    }
  ]
}